[
  {
    "COMMENT": "GENERATED VIA SPACETRACK.ORG API",
    "ORIGINATOR": "18 SPCS",
    "NORAD_CAT_ID": "39086",
    "OBJECT_NAME": "SARAL",
    "OBJECT_TYPE": "PAYLOAD",
    "CLASSIFICATION_TYPE": "U",
    "INTLDES": "13009A",
    "EPOCH": "2023-04-13 09:45:10",
    "EPOCH_MICROSECONDS": "98432",
    "MEAN_MOTION": "14.32172696",
    "ECCENTRICITY": "0.0002927",
    "INCLINATION": "98.5484",
    "RA_OF_ASC_NODE": "289.6381",
    "ARG_OF_PERICENTER": "108.1199",
    "MEAN_ANOMALY": "252.0304",
    "EPHEMERIS_TYPE": "0",
    "ELEMENT_SET_NO": "999",
    "REV_AT_EPOCH": "52941",
    "BSTAR": "0.000095229",
    "MEAN_MOTION_DOT": "0.00000213",
    "MEAN_MOTION_DDOT": "0",
    "FILE": "3886564",
    "TLE_LINE0": "0 SARAL",
    "TLE_LINE1": "1 39086U 13009A   23103.40636688  .00000213  00000-0  95229-4 0  9996",
    "TLE_LINE2": "2 39086  98.5484 289.6381 0002927 108.1199 252.0304 14.32172696529410",
    "OBJECT_ID": "2013-009A",
    "OBJECT_NUMBER": "39086",
    "SEMIMAJOR_AXIS": "7162.615",
    "PERIOD": "100.547",
    "APOGEE": "786.576",
    "PERIGEE": "782.383",
    "DECAYED": "0"
  },
  {
    "COMMENT": "GENERATED VIA SPACETRACK.ORG API",
    "ORIGINATOR": "18 SPCS",
    "NORAD_CAT_ID": "39086",
    "OBJECT_NAME": "SARAL",
    "OBJECT_TYPE": "PAYLOAD",
    "CLASSIFICATION_TYPE": "U",
    "INTLDES": "13009A",
    "EPOCH": "2023-04-14 12:34:50",
    "EPOCH_MICROSECONDS": "51424",
    "MEAN_MOTION": "14.32173454",
    "ECCENTRICITY": "0.0002947",
    "INCLINATION": "98.5485",
    "RA_OF_ASC_NODE": "290.7398",
    "ARG_OF_PERICENTER": "106.1861",
    "MEAN_ANOMALY": "253.9647",
    "EPHEMERIS_TYPE": "0",
    "ELEMENT_SET_NO": "999",
    "REV_AT_EPOCH": "52957",
    "BSTAR": "0.00010772",
    "MEAN_MOTION_DOT": "0.00000246",
    "MEAN_MOTION_DDOT": "0",
    "FILE": "3887333",
    "TLE_LINE0": "0 SARAL",
    "TLE_LINE1": "1 39086U 13009A   23104.52419041  .00000246  00000-0  10772-3 0  9997",
    "TLE_LINE2": "2 39086  98.5485 290.7398 0002947 106.1861 253.9647 14.32173454529578",
    "OBJECT_ID": "2013-009A",
    "OBJECT_NUMBER": "39086",
    "SEMIMAJOR_AXIS": "7162.612",
    "PERIOD": "100.546",
    "APOGEE": "786.588",
    "PERIGEE": "782.366",
    "DECAYED": "0"
  },
  {
    "COMMENT": "GENERATED VIA SPACETRACK.ORG API",
    "ORIGINATOR": "18 SPCS",
    "NORAD_CAT_ID": "39086",
    "OBJECT_NAME": "SARAL",
    "OBJECT_TYPE": "PAYLOAD",
    "CLASSIFICATION_TYPE": "U",
    "INTLDES": "13009A",
    "EPOCH": "2023-04-15 13:43:53",
    "EPOCH_MICROSECONDS": "713344",
    "MEAN_MOTION": "14.32174254",
    "ECCENTRICITY": "0.0002965",
    "INCLINATION": "98.5485",
    "RA_OF_ASC_NODE": "291.7726",
    "ARG_OF_PERICENTER": "104.1383",
    "MEAN_ANOMALY": "256.0131",
    "EPHEMERIS_TYPE": "0",
    "ELEMENT_SET_NO": "999",
    "REV_AT_EPOCH": "52972",
    "BSTAR": "0.00012184",
    "MEAN_MOTION_DOT": "0.00000284",
    "MEAN_MOTION_DDOT": "0",
    "FILE": "3887974",
    "TLE_LINE0": "0 SARAL",
    "TLE_LINE1": "1 39086U 13009A   23105.57214946  .00000284  00000-0  12184-3 0  9991",
    "TLE_LINE2": "2 39086  98.5485 291.7726 0002965 104.1383 256.0131 14.32174254529729",
    "OBJECT_ID": "2013-009A",
    "OBJECT_NUMBER": "39086",
    "SEMIMAJOR_AXIS": "7162.609",
    "PERIOD": "100.546",
    "APOGEE": "786.598",
    "PERIGEE": "782.351",
    "DECAYED": "0"
  },
  {
    "COMMENT": "GENERATED VIA SPACETRACK.ORG API",
    "ORIGINATOR": "18 SPCS",
    "NORAD_CAT_ID": "39086",
    "OBJECT_NAME": "SARAL",
    "OBJECT_TYPE": "PAYLOAD",
    "CLASSIFICATION_TYPE": "U",
    "INTLDES": "13009A",
    "EPOCH": "2023-04-15 20:26:18",
    "EPOCH_MICROSECONDS": "683232",
    "MEAN_MOTION": "14.3217438",
    "ECCENTRICITY": "0.000297",
    "INCLINATION": "98.5485",
    "RA_OF_ASC_NODE": "292.048",
    "ARG_OF_PERICENTER": "103.5783",
    "MEAN_ANOMALY": "256.5731",
    "EPHEMERIS_TYPE": "0",
    "ELEMENT_SET_NO": "999",
    "REV_AT_EPOCH": "52976",
    "BSTAR": "0.00011768",
    "MEAN_MOTION_DOT": "0.00000273",
    "MEAN_MOTION_DDOT": "0",
    "FILE": "3888171",
    "TLE_LINE0": "0 SARAL",
    "TLE_LINE1": "1 39086U 13009A   23105.85160513  .00000273  00000-0  11768-3 0  9997",
    "TLE_LINE2": "2 39086  98.5485 292.0480 0002970 103.5783 256.5731 14.32174380529768",
    "OBJECT_ID": "2013-009A",
    "OBJECT_NUMBER": "39086",
    "SEMIMAJOR_AXIS": "7162.609",
    "PERIOD": "100.546",
    "APOGEE": "786.601",
    "PERIGEE": "782.347",
    "DECAYED": "0"
  },
  {
    "COMMENT": "GENERATED VIA SPACETRACK.ORG API",
    "ORIGINATOR": "18 SPCS",
    "NORAD_CAT_ID": "39086",
    "OBJECT_NAME": "SARAL",
    "OBJECT_TYPE": "PAYLOAD",
    "CLASSIFICATION_TYPE": "U",
    "INTLDES": "13009A",
    "EPOCH": "2023-04-16 13:12:21",
    "EPOCH_MICROSECONDS": "89376",
    "MEAN_MOTION": "14.32174986",
    "ECCENTRICITY": "0.000298",
    "INCLINATION": "98.5485",
    "RA_OF_ASC_NODE": "292.7365",
    "ARG_OF_PERICENTER": "102.2828",
    "MEAN_ANOMALY": "257.869",
    "EPHEMERIS_TYPE": "0",
    "ELEMENT_SET_NO": "999",
    "REV_AT_EPOCH": "52986",
    "BSTAR": "0.00013152",
    "MEAN_MOTION_DOT": "0.00000311",
    "MEAN_MOTION_DDOT": "0",
    "FILE": "3888626",
    "TLE_LINE0": "0 SARAL",
    "TLE_LINE1": "1 39086U 13009A   23106.55024409  .00000311  00000-0  13152-3 0  9990",
    "TLE_LINE2": "2 39086  98.5485 292.7365 0002980 102.2828 257.8690 14.32174986529865",
    "OBJECT_ID": "2013-009A",
    "OBJECT_NUMBER": "39086",
    "SEMIMAJOR_AXIS": "7162.607",
    "PERIOD": "100.546",
    "APOGEE": "786.606",
    "PERIGEE": "782.337",
    "DECAYED": "0"
  },
  {
    "COMMENT": "GENERATED VIA SPACETRACK.ORG API",
    "ORIGINATOR": "18 SPCS",
    "NORAD_CAT_ID": "39086",
    "OBJECT_NAME": "SARAL",
    "OBJECT_TYPE": "PAYLOAD",
    "CLASSIFICATION_TYPE": "U",
    "INTLDES": "13009A",
    "EPOCH": "2023-04-16 19:54:46",
    "EPOCH_MICROSECONDS": "46304",
    "MEAN_MOTION": "14.32175179",
    "ECCENTRICITY": "0.0002987",
    "INCLINATION": "98.5485",
    "RA_OF_ASC_NODE": "293.0119",
    "ARG_OF_PERICENTER": "101.7353",
    "MEAN_ANOMALY": "258.4166",
    "EPHEMERIS_TYPE": "0",
    "ELEMENT_SET_NO": "999",
    "REV_AT_EPOCH": "52990",
    "BSTAR": "0.00013254",
    "MEAN_MOTION_DOT": "0.00000313",
    "MEAN_MOTION_DDOT": "0",
    "FILE": "3888799",
    "TLE_LINE0": "0 SARAL",
    "TLE_LINE1": "1 39086U 13009A   23106.82969961  .00000313  00000-0  13254-3 0  9996",
    "TLE_LINE2": "2 39086  98.5485 293.0119 0002987 101.7353 258.4166 14.32175179529905",
    "OBJECT_ID": "2013-009A",
    "OBJECT_NUMBER": "39086",
    "SEMIMAJOR_AXIS": "7162.606",
    "PERIOD": "100.546",
    "APOGEE": "786.611",
    "PERIGEE": "782.332",
    "DECAYED": "0"
  },
  {
    "COMMENT": "GENERATED VIA SPACETRACK.ORG API",
    "ORIGINATOR": "18 SPCS",
    "NORAD_CAT_ID": "39086",
    "OBJECT_NAME": "SARAL",
    "OBJECT_TYPE": "PAYLOAD",
    "CLASSIFICATION_TYPE": "U",
    "INTLDES": "13009A",
    "EPOCH": "2023-04-17 12:40:48",
    "EPOCH_MICROSECONDS": "417888",
    "MEAN_MOTION": "14.32175691",
    "ECCENTRICITY": "0.0002988",
    "INCLINATION": "98.5484",
    "RA_OF_ASC_NODE": "293.7004",
    "ARG_OF_PERICENTER": "100.5452",
    "MEAN_ANOMALY": "259.6068",
    "EPHEMERIS_TYPE": "0",
    "ELEMENT_SET_NO": "999",
    "REV_AT_EPOCH": "53000",
    "BSTAR": "0.00013476",
    "MEAN_MOTION_DOT": "0.00000319",
    "MEAN_MOTION_DDOT": "0",
    "FILE": "3889050",
    "TLE_LINE0": "0 SARAL",
    "TLE_LINE1": "1 39086U 13009A   23107.52833817  .00000319  00000-0  13476-3 0  9996",
    "TLE_LINE2": "2 39086  98.5484 293.7004 0002988 100.5452 259.6068 14.32175691530008",
    "OBJECT_ID": "2013-009A",
    "OBJECT_NUMBER": "39086",
    "SEMIMAJOR_AXIS": "7162.605",
    "PERIOD": "100.546",
    "APOGEE": "786.610",
    "PERIGEE": "782.329",
    "DECAYED": "0"
  },
  {
    "COMMENT": "GENERATED VIA SPACETRACK.ORG API",
    "ORIGINATOR": "18 SPCS",
    "NORAD_CAT_ID": "39086",
    "OBJECT_NAME": "SARAL",
    "OBJECT_TYPE": "PAYLOAD",
    "CLASSIFICATION_TYPE": "U",
    "INTLDES": "13009A",
    "EPOCH": "2023-04-17 14:21:24",
    "EPOCH_MICROSECONDS": "654528",
    "MEAN_MOTION": "14.32175734",
    "ECCENTRICITY": "0.000299",
    "INCLINATION": "98.5484",
    "RA_OF_ASC_NODE": "293.7693",
    "ARG_OF_PERICENTER": "100.3438",
    "MEAN_ANOMALY": "259.8083",
    "EPHEMERIS_TYPE": "0",
    "ELEMENT_SET_NO": "999",
    "REV_AT_EPOCH": "53001",
    "BSTAR": "0.00013446",
    "MEAN_MOTION_DOT": "0.00000318",
    "MEAN_MOTION_DDOT": "0",
    "FILE": "3889215",
    "TLE_LINE0": "0 SARAL",
    "TLE_LINE1": "1 39086U 13009A   23107.59820202  .00000318  00000-0  13446-3 0  9993",
    "TLE_LINE2": "2 39086  98.5484 293.7693 0002990 100.3438 259.8083 14.32175734530015",
    "OBJECT_ID": "2013-009A",
    "OBJECT_NUMBER": "39086",
    "SEMIMAJOR_AXIS": "7162.604",
    "PERIOD": "100.546",
    "APOGEE": "786.611",
    "PERIGEE": "782.328",
    "DECAYED": "0"
  },
  {
    "COMMENT": "GENERATED VIA SPACETRACK.ORG API",
    "ORIGINATOR": "18 SPCS",
    "NORAD_CAT_ID": "39086",
    "OBJECT_NAME": "SARAL",
    "OBJECT_TYPE": "PAYLOAD",
    "CLASSIFICATION_TYPE": "U",
    "INTLDES": "13009A",
    "EPOCH": "2023-04-17 21:03:49",
    "EPOCH_MICROSECONDS": "596768",
    "MEAN_MOTION": "14.32175944",
    "ECCENTRICITY": "0.0002994",
    "INCLINATION": "98.5485",
    "RA_OF_ASC_NODE": "294.0447",
    "ARG_OF_PERICENTER": "99.8031",
    "MEAN_ANOMALY": "260.3491",
    "EPHEMERIS_TYPE": "0",
    "ELEMENT_SET_NO": "999",
    "REV_AT_EPOCH": "53005",
    "BSTAR": "0.00013329",
    "MEAN_MOTION_DOT": "0.00000315",
    "MEAN_MOTION_DDOT": "0",
    "FILE": "3889391",
    "TLE_LINE0": "0 SARAL",
    "TLE_LINE1": "1 39086U 13009A   23107.87765737  .00000315  00000-0  13329-3 0  9992",
    "TLE_LINE2": "2 39086  98.5485 294.0447 0002994  99.8031 260.3491 14.32175944530059",
    "OBJECT_ID": "2013-009A",
    "OBJECT_NUMBER": "39086",
    "SEMIMAJOR_AXIS": "7162.604",
    "PERIOD": "100.546",
    "APOGEE": "786.613",
    "PERIGEE": "782.324",
    "DECAYED": "0"
  }
]